[{"OBJECT_NAME":"STARLINK-4800","OBJECT_ID":"2022-114AN","EPOCH":"2026-03-09T20:32:32.987040","MEAN_MOTION":15.08840104,"ECCENTRICITY":0.00013511,"INCLINATION":53.2176,"RA_OF_ASC_NODE":283.6078,"ARG_OF_PERICENTER":91.7853,"MEAN_ANOMALY":268.3293,"EPHEMERIS_TYPE":0,"CLASSIFICATION_TYPE":"U","NORAD_CAT_ID":53854,"ELEMENT_SET_NO":999,"REV_AT_EPOCH":19313,"BSTAR":-2.3586364e-5,"MEAN_MOTION_DOT":-6.63e-6,"MEAN_MOTION_DDOT":0},{"OBJECT_NAME":"DIAMANT R\/B","OBJECT_ID":"1966-013B","EPOCH":"2026-03-09T06:54:47.653920","MEAN_MOTION":12.93422759,"ECCENTRICITY":0.10366862,"INCLINATION":34.0694,"RA_OF_ASC_NODE":174.684,"ARG_OF_PERICENTER":274.635,"MEAN_ANOMALY":73.6812,"EPHEMERIS_TYPE":0,"CLASSIFICATION_TYPE":"U","NORAD_CAT_ID":2017,"ELEMENT_SET_NO":999,"REV_AT_EPOCH":75683,"BSTAR":0.00075378297,"MEAN_MOTION_DOT":2.953e-5,"MEAN_MOTION_DDOT":0}]
